{"spkid": "54017644", "covariance": {"labels": ["e", "q", "tp", "node", "peri", "i"], "elements": [{"label": "e", "sigma": 3.38251470263624e-07, "name": "e", "units": null, "title": "eccentricity", "value": ".7022276453814534"}, {"label": "q", "title": "perihelion distance", "value": ".7470151930585337", "units": "au", "sigma": 8.59779231423782e-07, "name": "q"}, {"label": "tp", "sigma": 5.80200962139718e-05, "name": "tp", "units": "TDB", "value": "2457752.710337990716", "title": "time of perihelion passage"}, {"label": "node", "sigma": 4.57591275010852e-05, "name": "om", "title": "longitude of the ascending node", "value": "69.40259847781701", "units": "deg"}, {"sigma": 5.29044140295213e-05, "name": "w", "units": "deg", "title": "argument of perihelion", "value": "302.6957391422715", "label": "peri"}, {"label": "i", "sigma": 5.77025915556384e-05, "name": "i", "units": "deg", "value": "16.54786709045465", "title": "inclination"}], "data": [["1.144140571355036E-13", "-2.907864420952271E-13", "1.460019712167311E-11", "4.524589341211E-12", "9.843437957985909E-12", "-6.889000672680724E-12"], ["-2.907864420952271E-13", "7.392203267876698E-13", "-3.685720493036335E-11", "-1.152411132233053E-11", "-2.491918965910462E-11", "1.748790083082265E-11"], ["1.460019712167311E-11", "-3.685720493036335E-11", "3.366331564678549E-9", "4.622848923065954E-10", "1.701593463429593E-9", "-8.825499049988945E-10"], ["4.524589341211E-12", "-1.152411132233053E-11", "4.622848923065954E-10", "2.093897749660576E-9", "-1.446907691775823E-9", "-1.63859723889285E-9"], ["9.843437957985909E-12", "-2.491918965910462E-11", "1.701593463429593E-9", "-1.446907691775823E-9", "2.798877023807007E-9", "6.917796079087374E-10"], ["-6.889000672680724E-12", "1.748790083082265E-11", "-8.825499049988945E-10", "-1.63859723889285E-9", "6.917796079087374E-10", "3.329589072236833E-9"]], "epoch": "2458287.5"}, "elements": [{"label": "e", "name": "e", "sigma": "3.3654E-7", "value": ".7020078993445585", "title": "eccentricity", "units": null}, {"name": "a", "sigma": "6.463E-8", "units": "au", "value": "2.509945291592766", "title": "semi-major axis", "label": "a"}, {"label": "q", "units": "au", "title": "perihelion distance", "value": ".7479438699719627", "sigma": "8.5532E-7", "name": "q"}, {"label": "i", "sigma": "5.7698E-5", "name": "i", "value": "16.55317325921557", "title": "inclination; angle with respect to x-y ecliptic plane", "units": "deg"}, {"title": "longitude of the ascending node", "value": "69.31298254890335", "units": "deg", "sigma": "4.5679E-5", "name": "om", "label": "node"}, {"name": "w", "sigma": "5.293E-5", "units": "deg", "value": "302.7323912929286", "title": "argument of perihelion", "label": "peri"}, {"sigma": "3.0724E-5", "name": "ma", "title": "mean anomaly", "value": "134.5611538639653", "units": "deg", "label": "M"}, {"label": "tp", "name": "tp", "sigma": ".00010486", "units": "TDB", "title": "time of perihelion passage", "value": "2460657.609787828558"}, {"value": "1452.428659903584", "title": "sidereal orbital period", "units": "d", "sigma": "5.6099E-5", "name": "per", "label": "period"}, {"label": "n", "sigma": "9.5734E-9", "name": "n", "value": ".2478607107793492", "title": "mean motion", "units": "deg/d"}, {"name": "ad", "sigma": "1.1E-7", "units": "au", "title": "aphelion distance", "value": "4.271946713213568", "label": "Q"}], "epoch": "2461200.5"}